{
"type": "FeatureCollection",
"name": "1_AOI_GBOV_CONDOM",
"crs": { "type": "name", "properties": { "name": "urn:ogc:def:crs:OGC:1.3:CRS84" } },
"features": [
{ "type": "Feature", "properties": { "fid": 1, "Typ": "sad_jablonek" }, "geometry": { "type": "Polygon", "coordinates": [ [ [ 0.331773993674268, 43.975606939765846 ], [ 0.33112232336836, 43.97445841585651 ], [ 0.335143957245204, 43.973201880294276 ], [ 0.335885637261889, 43.974343203426756 ], [ 0.331773993674268, 43.975606939765846 ] ] ] } },
{ "type": "Feature", "properties": { "fid": 2, "Typ": "sad_jablonek" }, "geometry": { "type": "Polygon", "coordinates": [ [ [ 0.335907239592469, 43.974152382839925 ], [ 0.335331177443588, 43.973201880294276 ], [ 0.335503996088255, 43.973165876409972 ], [ 0.335543600360985, 43.973245084955458 ], [ 0.336522906014071, 43.972931851162002 ], [ 0.336537307567803, 43.97300385893061 ], [ 0.336940551072014, 43.972888646500849 ], [ 0.336994556898479, 43.972971455434731 ], [ 0.337127771270394, 43.972892246889266 ], [ 0.337577819824206, 43.97379954477374 ], [ 0.336206071832197, 43.974224390608548 ], [ 0.336123262898291, 43.974083975459749 ], [ 0.335907239592469, 43.974152382839925 ] ] ] } },
{ "type": "Feature", "properties": { "fid": 3, "Typ": "sad_jablonek" }, "geometry": { "type": "Polygon", "coordinates": [ [ [ 0.332933318748886, 43.977648360005915 ], [ 0.332094428244582, 43.97629461395605 ], [ 0.332188038343783, 43.976251409294882 ], [ 0.331939611542077, 43.975837364625377 ], [ 0.336436496691744, 43.974400809641622 ], [ 0.336818137865381, 43.975117286939295 ], [ 0.335853233766011, 43.975434121121175 ], [ 0.335720019394089, 43.975549333550944 ], [ 0.335615608129599, 43.975660945592281 ], [ 0.335489594534517, 43.975732953360897 ], [ 0.335467992203956, 43.97574015413776 ], [ 0.335410385989054, 43.97580136074108 ], [ 0.33572001939408, 43.97635582055937 ], [ 0.335601206575877, 43.976582645030483 ], [ 0.335521998030405, 43.976766264840442 ], [ 0.335485994146099, 43.976813069890021 ], [ 0.335413986377484, 43.976903079600802 ], [ 0.332933318748886, 43.977648360005915 ] ] ] } },
{ "type": "Feature", "properties": { "fid": 4, "Typ": "sad_jablonek" }, "geometry": { "type": "Polygon", "coordinates": [ [ [ 0.333880220906103, 43.97976898879147 ], [ 0.332717295443061, 43.977846381369595 ], [ 0.33546799220394, 43.976939083485114 ], [ 0.335475192980804, 43.977111902129785 ], [ 0.335388783658486, 43.977241516113274 ], [ 0.335359980551038, 43.977306323105047 ], [ 0.335370781716318, 43.977385531650498 ], [ 0.335507596476682, 43.978181217493621 ], [ 0.335507596476679, 43.978339634584579 ], [ 0.335233966955962, 43.978483650121788 ], [ 0.335125955303048, 43.978512453229243 ], [ 0.335050347146006, 43.978591661774715 ], [ 0.335025144426996, 43.978624065270587 ], [ 0.334989140542684, 43.978678071097043 ], [ 0.333937827120995, 43.979786990733629 ], [ 0.333880220906103, 43.97976898879147 ] ] ] } },
{ "type": "Feature", "properties": { "fid": 5, "Typ": "sad_jablonek" }, "geometry": { "type": "Polygon", "coordinates": [ [ [ 0.332094428244588, 43.98195802495718 ], [ 0.333404969633278, 43.980395456378368 ], [ 0.333520182063059, 43.980136228411368 ], [ 0.333563386724219, 43.980049819089039 ], [ 0.33348417817875, 43.979949008212984 ], [ 0.332317652327281, 43.97794719224563 ], [ 0.328342823500031, 43.979063312659072 ], [ 0.328126800194209, 43.978688872262296 ], [ 0.327478730276723, 43.978890494014422 ], [ 0.326470621516179, 43.979848197336928 ], [ 0.32687386502039, 43.980532271138728 ], [ 0.327219502309722, 43.980489066477546 ], [ 0.328609252243886, 43.981021923965265 ], [ 0.329358133037429, 43.981273951155401 ], [ 0.329638963335001, 43.981317155816562 ], [ 0.329984600624326, 43.981814009419971 ], [ 0.330733481417881, 43.981720399320771 ], [ 0.331302342789879, 43.981475572907506 ], [ 0.331381551335355, 43.981489974461219 ], [ 0.331777594062705, 43.981871615634844 ], [ 0.331972015037949, 43.982044434279523 ], [ 0.332094428244588, 43.98195802495718 ] ] ] } },
{ "type": "Feature", "properties": { "fid": 6, "Typ": "winnice" }, "geometry": { "type": "Polygon", "coordinates": [ [ [ 0.337804644295331, 43.97368433234395 ], [ 0.338780349559984, 43.973367498162077 ], [ 0.338099876146622, 43.971704118707208 ], [ 0.335298773947709, 43.972265779302347 ], [ 0.335640810848607, 43.97296425465786 ], [ 0.33685414174968, 43.97267622358342 ], [ 0.337271786807623, 43.97269062513714 ], [ 0.337322192245645, 43.972708627079292 ], [ 0.337804644295331, 43.97368433234395 ] ] ] } },
{ "type": "Feature", "properties": { "fid": 7, "Typ": "winnice" }, "geometry": { "type": "Polygon", "coordinates": [ [ [ 0.333296957980376, 43.972319785128825 ], [ 0.334866727336054, 43.972222574641201 ], [ 0.335586805022158, 43.972118163376699 ], [ 0.337639026427522, 43.971696917930373 ], [ 0.338049470708597, 43.971606908219606 ], [ 0.337545416328337, 43.97035037265735 ], [ 0.337070165055514, 43.970497988583006 ], [ 0.336987356121611, 43.970559195186318 ], [ 0.336890145633986, 43.970685208781397 ], [ 0.336789334757936, 43.970764417326848 ], [ 0.336666921551284, 43.970829224318614 ], [ 0.336612915724842, 43.970840025483895 ], [ 0.336551709121522, 43.970840025483902 ], [ 0.335982847749505, 43.970861627814465 ], [ 0.335712818617222, 43.970962438690528 ], [ 0.335655212402332, 43.970998442574832 ], [ 0.335604806964305, 43.971074050731865 ], [ 0.335500395699831, 43.97119286355008 ], [ 0.335417586765928, 43.971304475591424 ], [ 0.33530237433614, 43.971390884913752 ], [ 0.335025144426992, 43.971491695789808 ], [ 0.334895530443498, 43.97150969773196 ], [ 0.334693908691396, 43.971498896566672 ], [ 0.334254661302876, 43.971380083748457 ], [ 0.334042238385463, 43.971264871318702 ], [ 0.333880220906106, 43.971221666657542 ], [ 0.333743406145754, 43.971196463938497 ], [ 0.33363179410441, 43.971196463938519 ], [ 0.333534583616784, 43.971221666657513 ], [ 0.333494979344042, 43.971243268988111 ], [ 0.333469776625034, 43.971286473649272 ], [ 0.333433772740722, 43.971498896566672 ], [ 0.333365365360548, 43.971909340847745 ], [ 0.333293357591936, 43.971995750170095 ], [ 0.333260954096064, 43.972038954831234 ], [ 0.333203347881178, 43.972114562988281 ], [ 0.333203347881178, 43.972118163376706 ], [ 0.333296957980376, 43.972319785128825 ] ] ] } },
{ "type": "Feature", "properties": { "fid": 8, "Typ": "winnice" }, "geometry": { "type": "Polygon", "coordinates": [ [ [ 0.341815477006881, 43.978544856725087 ], [ 0.34411252482552, 43.97783918059271 ], [ 0.343280835098078, 43.976485434542852 ], [ 0.342517552750826, 43.976967886592519 ], [ 0.34216471468463, 43.977378330873599 ], [ 0.341664260692797, 43.978343234972968 ], [ 0.341624656420054, 43.97847644934491 ], [ 0.341635457585343, 43.978526854782949 ], [ 0.341815477006881, 43.978544856725087 ] ] ] } },
{ "type": "Feature", "properties": { "fid": 9, "Typ": "winnice" }, "geometry": { "type": "Polygon", "coordinates": [ [ [ 0.342045901866431, 43.978613264105256 ], [ 0.344360951627233, 43.979286536741768 ], [ 0.344821801346323, 43.979149721981393 ], [ 0.344137727544538, 43.977932790691881 ], [ 0.342042301478003, 43.978552057501922 ], [ 0.342045901866431, 43.978613264105256 ] ] ] } },
{ "type": "Feature", "properties": { "fid": 10, "Typ": "winnice" }, "geometry": { "type": "Polygon", "coordinates": [ [ [ 0.34525744834641, 43.97945935538641 ], [ 0.346506783131785, 43.97895890139457 ], [ 0.347007237123628, 43.978447646237441 ], [ 0.3468272177021, 43.978141613220863 ], [ 0.344731791635569, 43.978746478477177 ], [ 0.345207042908385, 43.979473756940131 ], [ 0.34525744834641, 43.97945935538641 ] ] ] } },
{ "type": "Feature", "properties": { "fid": 11, "Typ": "winnice" }, "geometry": { "type": "Polygon", "coordinates": [ [ [ 0.344713789693416, 43.978696073039117 ], [ 0.346775012069855, 43.978048003121678 ], [ 0.346317762739204, 43.977277519997529 ], [ 0.344236738226383, 43.977893186419138 ], [ 0.344713789693416, 43.978696073039117 ] ] ] } },
{ "type": "Feature", "properties": { "fid": 12, "Typ": "winnice" }, "geometry": { "type": "Polygon", "coordinates": [ [ [ 0.344222336672651, 43.977799576319953 ], [ 0.346278158466452, 43.977165907956191 ], [ 0.345568881945655, 43.975984980550983 ], [ 0.343588668308893, 43.976755463675119 ], [ 0.344222336672651, 43.977799576319953 ] ] ] } },
{ "type": "Feature", "properties": { "fid": 13, "Typ": "winnice" }, "geometry": { "type": "Polygon", "coordinates": [ [ [ 0.347055842367433, 43.978400841187849 ], [ 0.346173747201972, 43.976885077658622 ], [ 0.347898333260164, 43.976381023278378 ], [ 0.348348381813972, 43.977695165055486 ], [ 0.34743748354107, 43.97788958603072 ], [ 0.347300668780715, 43.978184817882024 ], [ 0.347214259458378, 43.978289229146505 ], [ 0.347055842367433, 43.978400841187849 ] ] ] } },
{ "type": "Feature", "properties": { "fid": 14, "Typ": "winnice" }, "geometry": { "type": "Polygon", "coordinates": [ [ [ 0.346144944094531, 43.976813069890007 ], [ 0.348020746466803, 43.97623700774114 ], [ 0.348679617549585, 43.97619740346839 ], [ 0.347739916169222, 43.974577228674661 ], [ 0.345252047763775, 43.975311707914472 ], [ 0.345594084664663, 43.975891370451805 ], [ 0.346144944094531, 43.976813069890007 ] ] ] } },
{ "type": "Feature", "properties": { "fid": 15, "Typ": "winnice" }, "geometry": { "type": "Polygon", "coordinates": [ [ [ 0.344639981730581, 43.975430520732701 ], [ 0.345705696706008, 43.975106485773956 ], [ 0.344755194160375, 43.973511513699243 ], [ 0.343873098994892, 43.974184786335755 ], [ 0.344639981730581, 43.975430520732701 ] ] ] } },
{ "type": "Feature", "properties": { "fid": 16, "Typ": "winnice" }, "geometry": { "type": "Polygon", "coordinates": [ [ [ 0.343541863259293, 43.975484526559157 ], [ 0.344369952598304, 43.975250501311166 ], [ 0.34380109122629, 43.974285597211811 ], [ 0.343109816647634, 43.974793251980493 ], [ 0.343541863259293, 43.975484526559157 ] ] ] } },
{ "type": "Feature", "properties": { "fid": 17, "Typ": "winnice" }, "geometry": { "type": "Polygon", "coordinates": [ [ [ 0.342134111382969, 43.974973271402021 ], [ 0.341017990969524, 43.97293545155037 ], [ 0.342641766151666, 43.972427796781666 ], [ 0.343567065978307, 43.974037170410092 ], [ 0.34243654401114, 43.974908464410255 ], [ 0.342134111382969, 43.974973271402021 ] ] ] } },
{ "type": "Feature", "properties": { "fid": 18, "Typ": "winnice" }, "geometry": { "type": "Polygon", "coordinates": [ [ [ 0.34377588850728, 43.9738967552613 ], [ 0.34482720192898, 43.973083067476033 ], [ 0.344755194160363, 43.973047063591721 ], [ 0.343934305598215, 43.972960654269386 ], [ 0.343235830242707, 43.973039862814851 ], [ 0.34377588850728, 43.9738967552613 ] ] ] } },
{ "type": "Feature", "properties": { "fid": 19, "Typ": "odkryta_gleba" }, "geometry": { "type": "Polygon", "coordinates": [ [ [ 0.33913318762617, 43.976763564549074 ], [ 0.338269094402872, 43.975280204515713 ], [ 0.337570619047351, 43.97532340917688 ], [ 0.337484209725011, 43.975164992085951 ], [ 0.338434712270668, 43.974430512846133 ], [ 0.339889269196577, 43.973739238267463 ], [ 0.33967324589074, 43.973271187771516 ], [ 0.340918980287691, 43.972939952035915 ], [ 0.342049502254855, 43.975006574995 ], [ 0.339752454436215, 43.975251401408265 ], [ 0.340429327461143, 43.976446730367201 ], [ 0.339334809378276, 43.976857174648273 ], [ 0.33913318762617, 43.976763564549074 ] ] ] } },
{ "type": "Feature", "properties": { "fid": 20, "Typ": "odkryta_gleba" }, "geometry": { "type": "Polygon", "coordinates": [ [ [ 0.338960368981516, 43.973357597093809 ], [ 0.340717358535583, 43.97279593649867 ], [ 0.340652551543836, 43.971362981903333 ], [ 0.340515736783467, 43.97052049101061 ], [ 0.340321315808236, 43.969483579142633 ], [ 0.340018883180078, 43.968677092134207 ], [ 0.338369905278915, 43.968957922431784 ], [ 0.338441913047514, 43.969663598564154 ], [ 0.33825469284913, 43.969793212547657 ], [ 0.338103476535056, 43.96984361798566 ], [ 0.338031468766445, 43.969966031192328 ], [ 0.337786642353172, 43.970520491010618 ], [ 0.337786642353172, 43.970570896448621 ], [ 0.338960368981516, 43.973357597093809 ] ] ] } },
{ "type": "Feature", "properties": { "fid": 21, "Typ": "winnice" }, "geometry": { "type": "Polygon", "coordinates": [ [ [ 0.340924380870339, 43.971918341818714 ], [ 0.341838879531691, 43.971792328223657 ], [ 0.342335733135093, 43.972206372893162 ], [ 0.342663368482256, 43.972062357355931 ], [ 0.342868590622789, 43.972137965512985 ], [ 0.343423050441087, 43.972109162405538 ], [ 0.343232229854273, 43.970463784892814 ], [ 0.342634565374808, 43.970658205868048 ], [ 0.340780365333116, 43.970917433835062 ], [ 0.340924380870339, 43.971918341818714 ] ], [ [ 0.341172807672038, 43.971234268016936 ], [ 0.341162006506747, 43.971111854810303 ], [ 0.341270018159657, 43.971101053644993 ], [ 0.341270018159651, 43.971227067240072 ], [ 0.341172807672038, 43.971234268016936 ] ] ] } },
{ "type": "Feature", "properties": { "fid": 22, "Typ": "winnice" }, "geometry": { "type": "Polygon", "coordinates": [ [ [ 0.341543647680384, 43.970679808198639 ], [ 0.341201610779486, 43.968533976694069 ], [ 0.342047702060641, 43.968397161933709 ], [ 0.342375337407814, 43.970593398876311 ], [ 0.341543647680384, 43.970679808198639 ] ], [ [ 0.341532846515083, 43.969502481181884 ], [ 0.341651659333291, 43.969498880793452 ], [ 0.341615655448979, 43.969347664479358 ], [ 0.34149684263078, 43.969365666421517 ], [ 0.341532846515083, 43.969502481181884 ] ] ] } },
{ "type": "Feature", "properties": { "fid": 23, "Typ": "stacja" }, "geometry": { "type": "Polygon", "coordinates": [ [ [ 0.336090907737668, 43.97414778423223 ], [ 0.33615160333418, 43.974259713583599 ], [ 0.335973403530799, 43.974307512757065 ], [ 0.335906258269732, 43.97419207874016 ], [ 0.336090907737668, 43.97414778423223 ] ] ] } }
]
}
