{
"type": "FeatureCollection",
"name": "1_AOI_GBOV_CONDOM_ZASIEG",
"crs": { "type": "name", "properties": { "name": "urn:ogc:def:crs:OGC:1.3:CRS84" } },
"features": [
{ "type": "Feature", "properties": { "MINX": 0.326470621516179, "MINY": 43.968397161933709, "MAXX": 0.34867961754958499, "MAXY": 43.982044434279523, "CNTX": 0.337575119532882, "CNTY": 43.975220798106619, "AREA": 0.00030309221739499619, "PERIM": 0.071712536758440137, "HEIGHT": 0.013647272345814088, "WIDTH": 0.022208996033405981 }, "geometry": { "type": "MultiPolygon", "coordinates": [ [ [ [ 0.316470621516179, 43.968397161933709 ], [ 0.316470621516179, 43.982044434279523 ], [ 0.316960056353227, 43.985134604223269 ], [ 0.31838045157243, 43.987922286802444 ], [ 0.320592768993254, 43.990134604223272 ], [ 0.32338045157243, 43.991554999442471 ], [ 0.326470621516179, 43.992044434279521 ], [ 0.348679617549585, 43.992044434279521 ], [ 0.351769787493334, 43.991554999442471 ], [ 0.35455747007251, 43.990134604223272 ], [ 0.356769787493334, 43.987922286802444 ], [ 0.358190182712536, 43.985134604223269 ], [ 0.358679617549585, 43.982044434279523 ], [ 0.358679617549585, 43.968397161933709 ], [ 0.358190182712536, 43.965306991989962 ], [ 0.356769787493334, 43.962519309410787 ], [ 0.35455747007251, 43.96030699198996 ], [ 0.351769787493334, 43.95888659677076 ], [ 0.348679617549585, 43.958397161933711 ], [ 0.326470621516179, 43.958397161933711 ], [ 0.32338045157243, 43.95888659677076 ], [ 0.320592768993254, 43.96030699198996 ], [ 0.31838045157243, 43.962519309410787 ], [ 0.316960056353227, 43.965306991989962 ], [ 0.316470621516179, 43.968397161933709 ] ] ] ] } }
]
}
